STARLINK-31817          
1 59731U 24090B   26068.30078418  .00000038  00000+0  10898-4 0  9993
2 59731  43.0005 185.4383 0000381 165.4918 194.5945 15.27580929103387
AL MUNTHER              
1 63240U 25052AG  26068.64540749  .00017933  00000+0  65015-3 0  9992
2 63240  97.4001 323.9152 0008027 130.7043 229.4895 15.28381521 54798
